[{"OBJECT_NAME":"STARLINK-5637","OBJECT_ID":"2023-014AT","EPOCH":"2026-03-09T12:25:46.435584","MEAN_MOTION":14.98330096,"ECCENTRICITY":0.00033072,"INCLINATION":69.9993,"RA_OF_ASC_NODE":104.8652,"ARG_OF_PERICENTER":270.0583,"MEAN_ANOMALY":90.0197,"EPHEMERIS_TYPE":0,"CLASSIFICATION_TYPE":"U","NORAD_CAT_ID":55432,"ELEMENT_SET_NO":999,"REV_AT_EPOCH":17104,"BSTAR":7.360521e-6,"MEAN_MOTION_DOT":-5.0e-8,"MEAN_MOTION_DDOT":0},{"OBJECT_NAME":"COSMOS 886 DEB","OBJECT_ID":"1976-126BY","EPOCH":"2026-03-09T15:12:54.874944","MEAN_MOTION":13.31069333,"ECCENTRICITY":0.0856265,"INCLINATION":65.8136,"RA_OF_ASC_NODE":247.1366,"ARG_OF_PERICENTER":73.8679,"MEAN_ANOMALY":295.4822,"EPHEMERIS_TYPE":0,"CLASSIFICATION_TYPE":"U","NORAD_CAT_ID":18907,"ELEMENT_SET_NO":999,"REV_AT_EPOCH":83453,"BSTAR":0.00052411479,"MEAN_MOTION_DOT":2.066e-5,"MEAN_MOTION_DDOT":0}]
